$$SOE
2461302.500000000, A.D. 2026-Sep-19 00:00:00.0000, -2.657606070552739E+08, -1.655710854456267E+07, 1.074584380866304E+08,
2461309.500000000, A.D. 2026-Sep-26 00:00:00.0000, -2.647671536009172E+08, -2.927832354149002E+07, 1.098525478095403E+08,
2461316.500000000, A.D. 2026-Oct-03 00:00:00.0000, -2.632365342588440E+08, -4.194014512426651E+07, 1.120237788676645E+08,
2461323.500000000, A.D. 2026-Oct-10 00:00:00.0000, -2.611773541858458E+08, -5.451776492382675E+07, 1.139700670129494E+08,
2461330.500000000, A.D. 2026-Oct-17 00:00:00.0000, -2.585990918699510E+08, -6.698704752512857E+07, 1.156898365347297E+08,
2461337.500000000, A.D. 2026-Oct-24 00:00:00.0000, -2.555120435935666E+08, -7.932455468004918E+07, 1.171819838216206E+08,
2461344.500000000, A.D. 2026-Oct-31 00:00:00.0000, -2.519272693905556E+08, -9.150756550779960E+07, 1.184458606065300E+08,
2461351.500000000, A.D. 2026-Nov-07 00:00:00.0000, -2.478565403454824E+08, -1.035140929404778E+08, 1.194812570155226E+08,
2461358.500000000, A.D. 2026-Nov-14 00:00:00.0000, -2.433122871821548E+08, -1.153228958549618E+08, 1.202883846041824E+08,
2461365.500000000, A.D. 2026-Nov-21 00:00:00.0000, -2.383075520646370E+08, -1.269134865325362E+08, 1.208678597167939E+08,
2461372.500000000, A.D. 2026-Nov-28 00:00:00.0000, -2.328559446897734E+08, -1.382661367720663E+08, 1.212206871149439E+08,
2461379.500000000, A.D. 2026-Dec-05 00:00:00.0000, -2.269715991083113E+08, -1.493618836200871E+08, 1.213482435816186E+08,
2461386.500000000, A.D. 2026-Dec-12 00:00:00.0000, -2.206691311398561E+08, -1.601825318951080E+08, 1.212522618172689E+08,
2461393.500000000, A.D. 2026-Dec-19 00:00:00.0000, -2.139635982716207E+08, -1.707106537712070E+08, 1.209348148609055E+08,
2461400.500000000, A.D. 2026-Dec-26 00:00:00.0000, -2.068704621644062E+08, -1.809295865501541E+08, 1.203983010251682E+08,
2461407.500000000, A.D. 2027-Jan-02 00:00:00.0000, -1.994055534567116E+08, -1.908234290634248E+08, 1.196454293456091E+08,
2461414.500000000, A.D. 2027-Jan-09 00:00:00.0000, -1.915850387057820E+08, -2.003770369175812E+08, 1.186792055706665E+08,
2461421.500000000, A.D. 2027-Jan-16 00:00:00.0000, -1.834253893744422E+08, -2.095760167891824E+08, 1.175029187162499E+08,
2461428.500000000, A.D. 2027-Jan-23 00:00:00.0000, -1.749433527507973E+08, -2.184067200076666E+08, 1.161201281948102E+08,
2461435.500000000, A.D. 2027-Jan-30 00:00:00.0000, -1.661559245374113E+08, -2.268562356584465E+08, 1.145346515082756E+08,
2461442.500000000, A.D. 2027-Feb-06 00:00:00.0000, -1.570803226033064E+08, -2.349123830365156E+08, 1.127505524989992E+08,
2461449.500000000, A.D. 2027-Feb-13 00:00:00.0000, -1.477339622725210E+08, -2.425637023864278E+08, 1.107721303008993E+08,
2461456.500000000, A.D. 2027-Feb-20 00:00:00.0000, -1.381344354223482E+08, -2.497994448605203E+08, 1.086039091377666E+08,
2461463.500000000, A.D. 2027-Feb-27 00:00:00.0000, -1.282994919025176E+08, -2.566095650379887E+08, 1.062506285690067E+08,
2461470.500000000, A.D. 2027-Mar-06 00:00:00.0000, -1.182470201652108E+08, -2.629847141981098E+08, 1.037172340500163E+08,
2461477.500000000, A.D. 2027-Mar-13 00:00:00.0000, -1.079950286107382E+08, -2.689162323970969E+08, 1.010088680998255E+08,
2461484.500000000, A.D. 2027-Mar-20 00:00:00.0000, -9.756162867425843E+07, -2.743961402697151E+08, 9.813086208313482E+07,
2461491.500000000, A.D. 2027-Mar-27 00:00:00.0000, -8.696501934098852E+07, -2.794171311860998E+08, 9.508872851646094E+07,
2461498.500000000, A.D. 2027-Apr-03 00:00:00.0000, -7.622347277726133E+07, -2.839725638909596E+08, 9.188815385549881E+07,
2461505.500000000, A.D. 2027-Apr-10 00:00:00.0000, -6.535532091393811E+07, -2.880564556772292E+08, 8.853499174471594E+07,
2461512.500000000, A.D. 2027-Apr-17 00:00:00.0000, -5.437894286654498E+07, -2.916634761743857E+08, 8.503525670984912E+07,
2461519.500000000, A.D. 2027-Apr-24 00:00:00.0000, -4.331275302335221E+07, -2.947889418672929E+08, 8.139511825873560E+07,
2461526.500000000, A.D. 2027-May-01 00:00:00.0000, -3.217518941089749E+07, -2.974288113608201E+08, 7.762089533682419E+07,
2461533.500000000, A.D. 2027-May-08 00:00:00.0000, -2.098470193620198E+07, -2.995796806774783E+08, 7.371905113875663E+07,
2461540.500000000, A.D. 2027-May-15 00:00:00.0000, -9.759741908141740E+06, -3.012387776637143E+08, 6.969618845845035E+07,
2461547.500000000, A.D. 2027-May-22 00:00:00.0000, 1.481245693731002E+06, -3.024039581188895E+08, 6.555904547578348E+07,
2461554.500000000, A.D. 2027-May-29 00:00:00.0000, 1.271983065537911E+07, -3.030737051356341E+08, 6.131449151997476E+07,
2461561.500000000, A.D. 2027-Jun-05 00:00:00.0000, 2.393760764833531E+07, -3.032471285400509E+08, 5.696952295421791E+07,
2461568.500000000, A.D. 2027-Jun-12 00:00:00.0000, 3.511620611685524E+07, -3.029239640154327E+08, 5.253125936966757E+07,
2461575.500000000, A.D. 2027-Jun-19 00:00:00.0000, 4.623729968992171E+07, -3.021045728542499E+08, 4.800694000916882E+07,
2461582.500000000, A.D. 2027-Jun-26 00:00:00.0000, 5.728261548358345E+07, -3.007899426039003E+08, 4.340392033769134E+07,
2461589.500000000, A.D. 2027-Jul-03 00:00:00.0000, 6.823394350869469E+07, -2.989816885936015E+08, 3.872966870852281E+07,
2461596.500000000, A.D. 2027-Jul-10 00:00:00.0000, 7.907314630380388E+07, -2.966820563172932E+08, 3.399176307970339E+07,
2461603.500000000, A.D. 2027-Jul-17 00:00:00.0000, 8.978216891812097E+07, -2.938939246847153E+08, 2.919788773132052E+07,
2461610.500000000, A.D. 2027-Jul-24 00:00:00.0000, 1.003430494968457E+08, -2.906208101740882E+08, 2.435582992542133E+07,
2461617.500000000, A.D. 2027-Jul-31 00:00:00.0000, 1.107379309794593E+08, -2.868668716242800E+08, 1.947347645546171E+07,
2461624.500000000, A.D. 2027-Aug-07 00:00:00.0000, 1.209490738082071E+08, -2.826369144907179E+08, 1.455881016375703E+07,
2461631.500000000, A.D. 2027-Aug-14 00:00:00.0000, 1.309588674389292E+08, -2.779363947919638E+08, 9.619906579849392E+06,
2461638.500000000, A.D. 2027-Aug-21 00:00:00.0000, 1.407498413614748E+08, -2.727714260758600E+08, 4.664930305545673E+06,
2461645.500000000, A.D. 2027-Aug-28 00:00:00.0000, 1.503046791494540E+08, -2.671487881589139E+08, -2.978691162339002E+05,
2461652.500000000, A.D. 2027-Sep-04 00:00:00.0000, 1.596062344463305E+08, -2.610759350861878E+08, -5.260161585179329E+06,
2461659.500000000, A.D. 2027-Sep-11 00:00:00.0000, 1.686375475797608E+08, -2.545610029110199E+08, -1.021354105741718E+07,
2461666.500000000, A.D. 2027-Sep-18 00:00:00.0000, 1.773818630252113E+08, -2.476128178711104E+08, -1.514953050763734E+07,
2461673.500000000, A.D. 2027-Sep-25 00:00:00.0000, 1.858226480362639E+08, -2.402409049554693E+08, -2.005958732065845E+07,
2461680.500000000, A.D. 2027-Oct-02 00:00:00.0000, 1.939436126041814E+08, -2.324554967427796E+08, -2.493510917196544E+07,
2461687.500000000, A.D. 2027-Oct-09 00:00:00.0000, 2.017287308529225E+08, -2.242675424132413E+08, -2.976744045576754E+07,
2461694.500000000, A.D. 2027-Oct-16 00:00:00.0000, 2.091622640122629E+08, -2.156887168716279E+08, -3.454787932771903E+07,
2461701.500000000, A.D. 2027-Oct-23 00:00:00.0000, 2.162287853094499E+08, -2.067314298559729E+08, -3.926768544387469E+07,
2461708.500000000, A.D. 2027-Oct-30 00:00:00.0000, 2.229132072368550E+08, -1.974088342843744E+08, -4.391808843923172E+07,
2461715.500000000, A.D. 2027-Nov-06 00:00:00.0000, 2.292008101073339E+08, -1.877348325683305E+08, -4.849029700823372E+07,
2461722.500000000, A.D. 2027-Nov-13 00:00:00.0000, 2.350772699730423E+08, -1.777240828073059E+08, -5.297550863681143E+07,
2461729.500000000, A.D. 2027-Nov-20 00:00:00.0000, 2.405286888615502E+08, -1.673920068669929E+08, -5.736492049215246E+07,
2461736.500000000, A.D. 2027-Nov-27 00:00:00.0000, 2.455416289943164E+08, -1.567547971813161E+08, -6.164974143849112E+07,
2461743.500000000, A.D. 2027-Dec-04 00:00:00.0000, 2.501031489984773E+08, -1.458294211609087E+08, -6.582120498110744E+07,
2461750.500000000, A.D. 2027-Dec-11 00:00:00.0000, 2.542008415718977E+08, -1.346336239538080E+08, -6.987058322470793E+07,
2461757.500000000, A.D. 2027-Dec-18 00:00:00.0000, 2.578228728613849E+08, -1.231859296556971E+08, -7.378920194696811E+07,
2461764.500000000, A.D. 2027-Dec-25 00:00:00.0000, 2.609580236749959E+08, -1.115056407017422E+08, -7.756845683906354E+07,
2461771.500000000, A.D. 2028-Jan-01 00:00:00.0000, 2.635957325351725E+08, -9.961283513418821E+07, -8.119983095155236E+07,
$$EOE